              M50 Cartesian                         J2K Cartesian  
    -----------------------------------       --------------------------------
     X    =       12693374.39                 X    =         3861392.01
     Y    =        9039071.83  feet           Y    =         2798331.51  meter
     Z    =      -15904160.33                 Z    =        -4828812.43
     XDOT =     -19711.052252                 XDOT =       -6040.551049
     YDOT =      13261.499677  feet/sec       YDOT =        3974.737821  meter/sec
     ZDOT =      -8193.405914                 ZDOT =       -2526.614562
 
              TDR Cartesian                         TDR Cartesian  
    -----------------------------------       --------------------------------
     X    =       -9074024.87                 X    =        -2765762.78
     Y    =      -12769560.16  feet           Y    =        -3892161.94  meter
     Z    =      -15823062.12                 Z    =        -4822869.34
     XDOT =      22012.048898                 XDOT =        6709.272504
     YDOT =      -5329.357043  feet/sec       YDOT =       -1624.388027  meter/sec
     ZDOT =      -8321.111077                 ZDOT =       -2536.274656
  
  
    The mean element set is posted at the UTC for which position is
    just north of the next ascending node relative to the above
    vector time
 
 
    TWO LINE MEAN ELEMENT SET
  
    ISS
    1 25544U 98067A   16075.98583558  .00016717  00000-0  10270-3 0  9074
    2 25544  51.6419 162.8549 0001906 310.5395  49.5592 15.54153731 30489
  
  
    Satellite: ISS
    Catalog Number: 25544
    Epoch time:      16075.98583558   =   yrday.fracday
    Element set:     907
    Inclination:       51.6419  deg
    RA of node:       162.8549  deg
    Eccentricity:     .0001906     
    Arg of perigee:   310.5395  deg
    Mean anomaly:      49.5592  deg
    Mean motion:   15.54153731  rev/day
    Decay rate:    1.67170E-04  rev/day^2
    Epoch rev:            3048
    Checksum:              337
 
 
    Coasting Arc #9 (Orbit 3063)
    ---------------------------------------
 
    Vector Time (GMT): 2016/076/23:10:00.000
    Vector Time (MET): N/A
    Weight (LBS)     : 890369.9
 
              M50 Cartesian                         M50 Keplerian  
    -----------------------------------       --------------------------------
     X    =       -2280089.79                 A    =         6777286.73  meter
     Y    =       -3562567.90  meter          E    =           .0001153
     Z    =        5294371.94                 I    =           51.76189
     XDOT =       6823.769547                 Wp   =           89.46278
     YDOT =      -3446.783900  meter/sec      RA   =          156.86100  deg
     ZDOT =        619.307763                 TA   =          354.63608
                                              MA   =          354.63732
                                              Ha   =            220.474  n.mi
                                              Hp   =            215.108
 
              M50 Cartesian                         J2K Cartesian  
    -----------------------------------       --------------------------------
     X    =       -7480609.56                 X    =        -2265800.36
     Y    =      -11688214.91  feet           Y    =        -3587984.98  meter
     Z    =       17369986.67                 Z    =         5283330.98
     XDOT =      22387.695365                 XDOT =        6858.796882
     YDOT =     -11308.346127  feet/sec       YDOT =       -3370.280066  meter/sec
     ZDOT =       2031.849615                 ZDOT =         652.541028
 
              TDR Cartesian                         TDR Cartesian  
    -----------------------------------       --------------------------------
     X    =        3519225.83                 X    =         1072660.03
     Y    =       13484548.28  feet           Y    =         4110090.32  meter
     Z    =       17322595.98                 Z    =         5279927.25
     XDOT =     -23815.285000                 XDOT =       -7258.898868
     YDOT =       3418.651196  feet/sec       YDOT =        1042.004884  meter/sec
     ZDOT =       2176.715977                 ZDOT =         663.463030
  
  
    The mean element set is posted at the UTC for which position is
    just north of the next ascending node relative to the above
    vector time
 
 
    TWO LINE MEAN ELEMENT SET
  
    ISS
    1 25544U 98067A   16077.01465187  .00016717  00000-0  10270-3 0  9088
    2 25544  51.6422 157.7265 0002035 310.9928  49.1049 15.54198782 30647
  
  
    Satellite: ISS
    Catalog Number: 25544
    Epoch time:      16077.01465187   =   yrday.fracday
    Element set:     908
    Inclination:       51.6422  deg
    RA of node:       157.7265  deg
    Eccentricity:     .0002035     
    Arg of perigee:   310.9928  deg
    Mean anomaly:      49.1049  deg
    Mean motion:   15.54198782  rev/day
    Decay rate:    1.67170E-04  rev/day^2
    Epoch rev:            3064
    Checksum:              319
 
 
    Coasting Arc #10 (Orbit 3066)
    ---------------------------------------
 
    Vector Time (GMT): 2016/077/03:58:30.000
    Vector Time (MET): N/A
    Weight (LBS)     : 890369.9
 
              M50 Cartesian                         M50 Keplerian  
    -----------------------------------       --------------------------------
     X    =        2231433.12                 A    =         6781180.50  meter
     Y    =       -4726817.71  meter          E    =           .0008732
     Z    =        4316207.04                 I    =           51.77990
     XDOT =       6811.038184                 Wp   =           59.82112
     YDOT =        -13.010112  meter/sec      RA   =          155.83264  deg
     ZDOT =      -3525.874142                 TA   =           66.03869
                                              MA   =           65.94728
                                              Ha   =            220.331  n.mi
                                              Hp   =            215.160
 
              M50 Cartesian                         J2K Cartesian  
    -----------------------------------       --------------------------------
     X    =        7320974.80                 X    =         2263157.65
     Y    =      -15507932.13  feet           Y    =        -4701686.54  meter
     Z    =       14160784.25                 Z    =         4327124.19
     XDOT =      22345.925802                 XDOT =        6827.804472
     YDOT =        -42.684093  feet/sec       YDOT =          63.248844  meter/sec
     ZDOT =     -11567.828551                 ZDOT =       -3492.747423
 
              TDR Cartesian                         TDR Cartesian  
    -----------------------------------       --------------------------------
     X    =        8279926.03                 X    =         2523721.45
     Y    =       14972286.16  feet           Y    =         4563552.82  meter
     Z    =       14208937.82                 Z    =         4330884.25
     XDOT =     -12069.863326                 XDOT =       -3678.894342
     YDOT =      17546.170044  feet/sec       YDOT =        5348.072629  meter/sec
     ZDOT =     -11423.959216                 ZDOT =       -3482.022769
  
  
    The mean element set is posted at the UTC for which position is
    just north of the next ascending node relative to the above
    vector time
 
 
    TWO LINE MEAN ELEMENT SET
  
    ISS
    1 25544U 98067A   16077.20755141  .00016717  00000-0  10270-3 0  9092
    2 25544  51.6412 156.7628 0002210 310.5397  49.5563 15.54193884 30675
  
  
    Satellite: ISS
    Catalog Number: 25544
    Epoch time:      16077.20755141   =   yrday.fracday
    Element set:     909
    Inclination:       51.6412  deg
    RA of node:       156.7628  deg
    Eccentricity:     .0002210     
    Arg of perigee:   310.5397  deg
    Mean anomaly:      49.5563  deg
    Mean motion:   15.54193884  rev/day
    Decay rate:    1.67170E-04  rev/day^2
    Epoch rev:            3067
    Checksum:              311
 
 
    Coasting Arc #11 (Orbit 3081)
    ---------------------------------------
 
    Vector Time (GMT): 2016/078/03:58:30.000
    Vector Time (MET): N/A
    Weight (LBS)     : 890369.9
 
              M50 Cartesian                         M50 Keplerian  
    -----------------------------------       --------------------------------
     X    =       -3635680.62                 A    =         6785011.93  meter
     Y    =        4817593.68  meter          E    =           .0003899
     Z    =       -3099403.35                 I    =           51.81972
     XDOT =      -5766.585906                 Wp   =           50.17259
     YDOT =      -1200.636621  meter/sec      RA   =          150.85790  deg
     ZDOT =       4904.654545                 TA   =          274.29679
                                              MA   =          274.34134
                                              Ha   =            220.446  n.mi
                                              Hp   =            215.031
 
              M50 Cartesian                         J2K Cartesian  
    -----------------------------------       --------------------------------
     X    =      -11928086.01                 X    =        -3674226.54
     Y    =       15805753.53  feet           Y    =         4776721.22  meter
     Z    =      -10168646.16                 Z    =        -3117158.52
     XDOT =     -18919.245099                 XDOT =       -5776.555930
     YDOT =      -3939.096526  feet/sec       YDOT =       -1265.177627  meter/sec
     ZDOT =      16091.386302                 ZDOT =        4876.618160
 
